{
  "norad_id": 67175,
  "name": "STARLINK-35756",
  "history": [
    {
      "epoch": "2026-04-13T01:54:31.534560Z",
      "apogee_km": 483.70625873664176,
      "perigee_km": 482.35227618542103,
      "latitude_deg": 9.598701924609852e-07,
      "longitude_deg": -113.32665217186992,
      "height_km": 482.8659034616303,
      "semi_major_axis_km": 6861.166267461031,
      "eccentricity": 9.867e-05,
      "inclination_deg": 42.9996,
      "raan_deg": 116.5802,
      "arg_perigee_deg": 264.886,
      "mean_anomaly_deg": 95.1879,
      "mean_motion_rev_day": 15.27586622
    },
    {
      "epoch": "2026-04-14T17:08:26.064384Z",
      "apogee_km": 484.2062745621861,
      "perigee_km": 481.82682651086,
      "latitude_deg": -8.824105114136593e-06,
      "longitude_deg": 7.353738071736163,
      "height_km": 482.74071962027807,
      "semi_major_axis_km": 6861.153550536523,
      "eccentricity": 0.0001734,
      "inclination_deg": 43.0027,
      "raan_deg": 107.349,
      "arg_perigee_deg": 272.5585,
      "mean_anomaly_deg": 87.5068,
      "mean_motion_rev_day": 15.27590869
    },
    {
      "epoch": "2026-04-15T16:40:46.589088Z",
      "apogee_km": 484.52017946478463,
      "perigee_km": 481.46834827861585,
      "latitude_deg": -1.3229120281914828e-05,
      "longitude_deg": 7.761001794587024,
      "height_km": 482.52116112554285,
      "semi_major_axis_km": 6861.1312638717,
      "eccentricity": 0.0002224,
      "inclination_deg": 43.0017,
      "raan_deg": 101.8085,
      "arg_perigee_deg": 279.4541,
      "mean_anomaly_deg": 80.6059,
      "mean_motion_rev_day": 15.27598312
    },
    {
      "epoch": "2026-04-16T16:13:07.873248Z",
      "apogee_km": 483.67623066857686,
      "perigee_km": 482.42886640865163,
      "latitude_deg": 2.0989088499069077e-05,
      "longitude_deg": 8.164733708539636,
      "height_km": 482.78292007107973,
      "semi_major_axis_km": 6861.189548538614,
      "eccentricity": 9.09e-05,
      "inclination_deg": 42.9994,
      "raan_deg": 96.2676,
      "arg_perigee_deg": 274.2152,
      "mean_anomaly_deg": 85.8596,
      "mean_motion_rev_day": 15.27578847
    },
    {
      "epoch": "2026-04-17T07:54:41.592384Z",
      "apogee_km": 484.0342415719688,
      "perigee_km": 482.0049858918901,
      "latitude_deg": 5.371998502646043e-05,
      "longitude_deg": 128.4380969259162,
      "height_km": 482.77138269423347,
      "semi_major_axis_km": 6861.156613731929,
      "eccentricity": 0.00014788,
      "inclination_deg": 43.0018,
      "raan_deg": 92.5759,
      "arg_perigee_deg": 271.4229,
      "mean_anomaly_deg": 88.6454,
      "mean_motion_rev_day": 15.27589846
    },
    {
      "epoch": "2026-04-18T15:17:49.041024Z",
      "apogee_km": 483.91678345063065,
      "perigee_km": 482.04644251673017,
      "latitude_deg": 1.4102554607944242e-05,
      "longitude_deg": 8.98126677552683,
      "height_km": 482.59363089474357,
      "semi_major_axis_km": 6861.11861298368,
      "eccentricity": 0.0001363,
      "inclination_deg": 42.9985,
      "raan_deg": 85.1891,
      "arg_perigee_deg": 280.1305,
      "mean_anomaly_deg": 79.9393,
      "mean_motion_rev_day": 15.27602537
    },
    {
      "epoch": "2026-04-19T14:50:10.038336Z",
      "apogee_km": 483.73643141434695,
      "perigee_km": 482.3244031598697,
      "latitude_deg": -2.850803795085913e-05,
      "longitude_deg": 9.390312559922059,
      "height_km": 482.65529677352157,
      "semi_major_axis_km": 6861.167417287108,
      "eccentricity": 0.0001029,
      "inclination_deg": 43.0008,
      "raan_deg": 79.6524,
      "arg_perigee_deg": 282.3993,
      "mean_anomaly_deg": 77.6743,
      "mean_motion_rev_day": 15.27586238
    },
    {
      "epoch": "2026-04-20T14:22:31.343232Z",
      "apogee_km": 484.0115441947546,
      "perigee_km": 482.09878104366,
      "latitude_deg": -4.702841428393618e-06,
      "longitude_deg": 9.794943038750535,
      "height_km": 482.88020330627774,
      "semi_major_axis_km": 6861.192162619207,
      "eccentricity": 0.00013939,
      "inclination_deg": 42.9993,
      "raan_deg": 74.1125,
      "arg_perigee_deg": 267.0974,
      "mean_anomaly_deg": 92.9718,
      "mean_motion_rev_day": 15.27577974
    },
    {
      "epoch": "2026-04-21T13:54:51.919776Z",
      "apogee_km": 483.7110570921459,
      "perigee_km": 482.2784527817157,
      "latitude_deg": -3.2226749217493316e-05,
      "longitude_deg": 10.203261291449564,
      "height_km": 482.57699098635146,
      "semi_major_axis_km": 6861.1317549369305,
      "eccentricity": 0.0001044,
      "inclination_deg": 43.0029,
      "raan_deg": 68.5733,
      "arg_perigee_deg": 285.7539,
      "mean_anomaly_deg": 74.3197,
      "mean_motion_rev_day": 15.27598148
    },
    {
      "epoch": "2026-04-22T05:36:25.813440Z",
      "apogee_km": 483.72815807045936,
      "perigee_km": 482.3258733689263,
      "latitude_deg": -3.822975655100325e-05,
      "longitude_deg": 130.47735135364496,
      "height_km": 482.806529265184,
      "semi_major_axis_km": 6861.1640157196925,
      "eccentricity": 0.00010219,
      "inclination_deg": 43.0037,
      "raan_deg": 64.8831,
      "arg_perigee_deg": 269.7778,
      "mean_anomaly_deg": 90.2956,
      "mean_motion_rev_day": 15.27587374
    },
    {
      "epoch": "2026-04-23T12:59:33.666432Z",
      "apogee_km": 484.36654651178014,
      "perigee_km": 481.6611947234951,
      "latitude_deg": 1.5340863349505533e-05,
      "longitude_deg": 11.018827565680906,
      "height_km": 482.65720049495525,
      "semi_major_axis_km": 6861.150870617637,
      "eccentricity": 0.00019715,
      "inclination_deg": 43.0006,
      "raan_deg": 57.4962,
      "arg_perigee_deg": 275.6809,
      "mean_anomaly_deg": 84.3818,
      "mean_motion_rev_day": 15.27591764
    },
    {
      "epoch": "2026-04-24T20:22:41.113344Z",
      "apogee_km": 484.07389075215997,
      "perigee_km": 481.9304708720738,
      "latitude_deg": -2.5374092539655895e-05,
      "longitude_deg": -108.43759888785739,
      "height_km": 483.0688156844236,
      "semi_major_axis_km": 6861.139180812117,
      "eccentricity": 0.0001562,
      "inclination_deg": 43.003,
      "raan_deg": 50.1098,
      "arg_perigee_deg": 254.3251,
      "mean_anomaly_deg": 105.7428,
      "mean_motion_rev_day": 15.27595668
    },
    {
      "epoch": "2026-04-25T19:55:02.165952Z",
      "apogee_km": 483.41791163126345,
      "perigee_km": 482.5438052160989,
      "latitude_deg": 3.303444690835042e-05,
      "longitude_deg": -108.02867580989866,
      "height_km": 482.4318392776794,
      "semi_major_axis_km": 6861.11785842368,
      "eccentricity": 6.37e-05,
      "inclination_deg": 43.0003,
      "raan_deg": 44.5731,
      "arg_perigee_deg": 42.1453,
      "mean_anomaly_deg": 317.9448,
      "mean_motion_rev_day": 15.27602789
    },
    {
      "epoch": "2026-04-26T19:27:22.935168Z",
      "apogee_km": 483.5777692707252,
      "perigee_km": 482.39463718556,
      "latitude_deg": 3.1785413717028926e-05,
      "longitude_deg": -107.62093169421725,
      "height_km": 482.215504328386,
      "semi_major_axis_km": 6861.123203228142,
      "eccentricity": 8.622e-05,
      "inclination_deg": 43.0014,
      "raan_deg": 39.0341,
      "arg_perigee_deg": 22.6383,
      "mean_anomaly_deg": 337.4507,
      "mean_motion_rev_day": 15.27601004
    },
    {
      "epoch": "2026-04-27T11:08:56.110848Z",
      "apogee_km": 483.81818507368916,
      "perigee_km": 482.11663118047363,
      "latitude_deg": -1.1642980805929134e-05,
      "longitude_deg": 12.651720403241725,
      "height_km": 482.5288564169606,
      "semi_major_axis_km": 6861.104408127081,
      "eccentricity": 0.000124,
      "inclination_deg": 43.004,
      "raan_deg": 35.3395,
      "arg_perigee_deg": 284.6769,
      "mean_anomaly_deg": 75.3945,
      "mean_motion_rev_day": 15.27607281
    },
    {
      "epoch": "2026-04-28T10:41:17.571264Z",
      "apogee_km": 484.1712454361241,
      "perigee_km": 482.10325737675066,
      "latitude_deg": -1.1766187431622988e-05,
      "longitude_deg": 13.056678151411191,
      "height_km": 482.86383426546047,
      "semi_major_axis_km": 6861.274251406437,
      "eccentricity": 0.0001507,
      "inclination_deg": 43.0049,
      "raan_deg": 29.8006,
      "arg_perigee_deg": 272.814,
      "mean_anomaly_deg": 87.2539,
      "mean_motion_rev_day": 15.2755056
    },
    {
      "epoch": "2026-04-29T10:13:39.019584Z",
      "apogee_km": 484.0553216549115,
      "perigee_km": 482.04279855976074,
      "latitude_deg": -4.491983804241402e-05,
      "longitude_deg": 13.461450964663976,
      "height_km": 482.80431540162687,
      "semi_major_axis_km": 6861.186060107336,
      "eccentricity": 0.00014666,
      "inclination_deg": 43.0052,
      "raan_deg": 24.2615,
      "arg_perigee_deg": 271.2578,
      "mean_anomaly_deg": 88.8105,
      "mean_motion_rev_day": 15.27580012
    },
    {
      "epoch": "2026-04-30T09:45:59.666976Z",
      "apogee_km": 483.85726846728994,
      "perigee_km": 482.1927505637823,
      "latitude_deg": -2.800258167736581e-05,
      "longitude_deg": 13.870022955919259,
      "height_km": 482.6698343072714,
      "semi_major_axis_km": 6861.162009515536,
      "eccentricity": 0.0001213,
      "inclination_deg": 43.0044,
      "raan_deg": 18.7228,
      "arg_perigee_deg": 279.1411,
      "mean_anomaly_deg": 80.9303,
      "mean_motion_rev_day": 15.27588044
    },
    {
      "epoch": "2026-05-02T08:50:40.821792Z",
      "apogee_km": 483.78928467334936,
      "perigee_km": 482.19338622252417,
      "latitude_deg": 2.441193543674005e-05,
      "longitude_deg": 14.688169197456991,
      "height_km": 483.07447359900516,
      "semi_major_axis_km": 6861.1283354479365,
      "eccentricity": 0.0001163,
      "inclination_deg": 43.0011,
      "raan_deg": 7.6458,
      "arg_perigee_deg": 247.4007,
      "mean_anomaly_deg": 112.6722,
      "mean_motion_rev_day": 15.2759929
    }
  ]
}